STARLINK-36438          
1 67625U 26020J   26055.81083840  .00270853  00000+0  15948-2 0  9999
2 67625  43.0011 220.4328 0005559 272.4508  87.5725 15.76619533  4059
STARLINK-36436          
1 67626U 26020K   26055.52894922  .00329424  00000+0  19453-2 0  9993
2 67626  42.9987 221.7408 0003521 294.5319  65.5183 15.76398934  4014
STARLINK-36502          
1 67627U 26020L   26056.16668981  .00040510  00000+0  25063-3 0  9990
2 67627  42.9994 217.7090 0001811 270.8400 174.9874 15.76360452  5379
STARLINK-36532          
1 67628U 26020M   26056.16668981  .00005762  00000+0  38351-4 0  9996
2 67628  42.9990 217.6769 0001714 262.5271 195.7465 15.76366982  5375
STARLINK-36367          
1 67629U 26020N   26055.85669378  .00295612  00000+0  17476-2 0  9991
2 67629  42.9984 219.9045 0002375 299.1052  60.9580 15.76470561  4063
STARLINK-36416          
1 67630U 26020P   26056.16668981  .00014695  00000+0  93047-4 0  9997
2 67630  42.9991 218.2373 0001709 273.7803 320.5517 15.76373258  5376
STARLINK-36527          
1 67631U 26020Q   26055.88939793  .00192189  00000+0  11540-2 0  9999
2 67631  43.0014 219.2653 0001545 269.0554  91.0139 15.76417553  4079
STARLINK-36633          
1 67632U 26020R   26055.46121100  .00406421  00000+0  23582-2 0  9995
2 67632  42.9982 222.0899 0001942 240.7110 119.3566 15.76584352  4004
STARLINK-36637          
1 67633U 26020S   26055.80647348  .00412160  00000+0  24015-2 0  9990
2 67633  42.9974 220.3957 0001459 300.1078  59.9647 15.76473988  4055
STARLINK-36617          
1 67634U 26020T   26056.16668981  .00071078  00000+0  43613-3 0  9992
2 67634  42.9991 217.6154 0001989 258.4473 224.7088 15.76349283  5372
STARLINK-36627          
1 67635U 26020U   26055.79989833  .00017889  00000+0  11251-3 0  9996
2 67635  42.9985 220.3417 0001223 266.9558  93.1172 15.76386543  4054
STARLINK-36624          
1 67636U 26020V   26055.59011738  .00281219  00000+0  16706-2 0  9994
2 67636  42.9983 221.3384 0001598 252.4705 107.5990 15.76402431  4026
