CCSDS_OMM_VERS = 2.0
CREATION_DATE  = 
ORIGINATOR     = 

OBJECT_NAME    = STARLINK-36438
OBJECT_ID      = 2026-020J
CENTER_NAME    = EARTH
REF_FRAME      = TEME
TIME_SYSTEM    = UTC
MEAN_ELEMENT_THEORY = SGP/SGP4

EPOCH          = 2026-02-24T19:27:36.437760
MEAN_MOTION    = 15.76619533
ECCENTRICITY   = .00055594
INCLINATION    = 43.0011
RA_OF_ASC_NODE = 220.4328
ARG_OF_PERICENTER = 272.4508
MEAN_ANOMALY   = 87.5725

EPHEMERIS_TYPE = 0
CLASSIFICATION_TYPE = U
NORAD_CAT_ID   = 67625
ELEMENT_SET_NO = 999
REV_AT_EPOCH   = 405
BSTAR          = .15948355E-2
MEAN_MOTION_DOT = .270853E-2
MEAN_MOTION_DDOT = 0

CCSDS_OMM_VERS = 2.0
CREATION_DATE  = 
ORIGINATOR     = 

OBJECT_NAME    = STARLINK-36436
OBJECT_ID      = 2026-020K
CENTER_NAME    = EARTH
REF_FRAME      = TEME
TIME_SYSTEM    = UTC
MEAN_ELEMENT_THEORY = SGP/SGP4

EPOCH          = 2026-02-24T12:41:41.212608
MEAN_MOTION    = 15.76398934
ECCENTRICITY   = .00035212
INCLINATION    = 42.9987
RA_OF_ASC_NODE = 221.7408
ARG_OF_PERICENTER = 294.5319
MEAN_ANOMALY   = 65.5183

EPHEMERIS_TYPE = 0
CLASSIFICATION_TYPE = U
NORAD_CAT_ID   = 67626
ELEMENT_SET_NO = 999
REV_AT_EPOCH   = 401
BSTAR          = .19453262E-2
MEAN_MOTION_DOT = .329424E-2
MEAN_MOTION_DDOT = 0

CCSDS_OMM_VERS = 2.0
CREATION_DATE  = 
ORIGINATOR     = 

OBJECT_NAME    = STARLINK-36502
OBJECT_ID      = 2026-020L
CENTER_NAME    = EARTH
REF_FRAME      = TEME
TIME_SYSTEM    = UTC
MEAN_ELEMENT_THEORY = SGP/SGP4

EPOCH          = 2026-02-25T04:00:01.999584
MEAN_MOTION    = 15.76360452
ECCENTRICITY   = .0001811
INCLINATION    = 42.9994
RA_OF_ASC_NODE = 217.7090
ARG_OF_PERICENTER = 270.8400
MEAN_ANOMALY   = 174.9874

EPHEMERIS_TYPE = 0
CLASSIFICATION_TYPE = U
NORAD_CAT_ID   = 67627
ELEMENT_SET_NO = 999
REV_AT_EPOCH   = 537
BSTAR          = .25063E-3
MEAN_MOTION_DOT = .4051E-3
MEAN_MOTION_DDOT = 0

CCSDS_OMM_VERS = 2.0
CREATION_DATE  = 
ORIGINATOR     = 

OBJECT_NAME    = STARLINK-36532
OBJECT_ID      = 2026-020M
CENTER_NAME    = EARTH
REF_FRAME      = TEME
TIME_SYSTEM    = UTC
MEAN_ELEMENT_THEORY = SGP/SGP4

EPOCH          = 2026-02-25T04:00:01.999584
MEAN_MOTION    = 15.76366982
ECCENTRICITY   = .0001714
INCLINATION    = 42.9990
RA_OF_ASC_NODE = 217.6769
ARG_OF_PERICENTER = 262.5271
MEAN_ANOMALY   = 195.7465

EPHEMERIS_TYPE = 0
CLASSIFICATION_TYPE = U
NORAD_CAT_ID   = 67628
ELEMENT_SET_NO = 999
REV_AT_EPOCH   = 537
BSTAR          = .38351E-4
MEAN_MOTION_DOT = .5762E-4
MEAN_MOTION_DDOT = 0

CCSDS_OMM_VERS = 2.0
CREATION_DATE  = 
ORIGINATOR     = 

OBJECT_NAME    = STARLINK-36367
OBJECT_ID      = 2026-020N
CENTER_NAME    = EARTH
REF_FRAME      = TEME
TIME_SYSTEM    = UTC
MEAN_ELEMENT_THEORY = SGP/SGP4

EPOCH          = 2026-02-24T20:33:38.342592
MEAN_MOTION    = 15.76470561
ECCENTRICITY   = .0002375
INCLINATION    = 42.9984
RA_OF_ASC_NODE = 219.9045
ARG_OF_PERICENTER = 299.1052
MEAN_ANOMALY   = 60.9580

EPHEMERIS_TYPE = 0
CLASSIFICATION_TYPE = U
NORAD_CAT_ID   = 67629
ELEMENT_SET_NO = 999
REV_AT_EPOCH   = 406
BSTAR          = .17476E-2
MEAN_MOTION_DOT = .295612E-2
MEAN_MOTION_DDOT = 0

CCSDS_OMM_VERS = 2.0
CREATION_DATE  = 
ORIGINATOR     = 

OBJECT_NAME    = STARLINK-36416
OBJECT_ID      = 2026-020P
CENTER_NAME    = EARTH
REF_FRAME      = TEME
TIME_SYSTEM    = UTC
MEAN_ELEMENT_THEORY = SGP/SGP4

EPOCH          = 2026-02-25T04:00:01.999584
MEAN_MOTION    = 15.76373258
ECCENTRICITY   = .0001709
INCLINATION    = 42.9991
RA_OF_ASC_NODE = 218.2373
ARG_OF_PERICENTER = 273.7803
MEAN_ANOMALY   = 320.5517

EPHEMERIS_TYPE = 0
CLASSIFICATION_TYPE = U
NORAD_CAT_ID   = 67630
ELEMENT_SET_NO = 999
REV_AT_EPOCH   = 537
BSTAR          = .93047E-4
MEAN_MOTION_DOT = .14695E-3
MEAN_MOTION_DDOT = 0

CCSDS_OMM_VERS = 2.0
CREATION_DATE  = 
ORIGINATOR     = 

OBJECT_NAME    = STARLINK-36527
OBJECT_ID      = 2026-020Q
CENTER_NAME    = EARTH
REF_FRAME      = TEME
TIME_SYSTEM    = UTC
MEAN_ELEMENT_THEORY = SGP/SGP4

EPOCH          = 2026-02-24T21:20:43.981152
MEAN_MOTION    = 15.76417553
ECCENTRICITY   = .0001545
INCLINATION    = 43.0014
RA_OF_ASC_NODE = 219.2653
ARG_OF_PERICENTER = 269.0554
MEAN_ANOMALY   = 91.0139

EPHEMERIS_TYPE = 0
CLASSIFICATION_TYPE = U
NORAD_CAT_ID   = 67631
ELEMENT_SET_NO = 999
REV_AT_EPOCH   = 407
BSTAR          = .1154E-2
MEAN_MOTION_DOT = .192189E-2
MEAN_MOTION_DDOT = 0

CCSDS_OMM_VERS = 2.0
CREATION_DATE  = 
ORIGINATOR     = 

OBJECT_NAME    = STARLINK-36633
OBJECT_ID      = 2026-020R
CENTER_NAME    = EARTH
REF_FRAME      = TEME
TIME_SYSTEM    = UTC
MEAN_ELEMENT_THEORY = SGP/SGP4

EPOCH          = 2026-02-24T11:04:08.630400
MEAN_MOTION    = 15.76584352
ECCENTRICITY   = .00019426
INCLINATION    = 42.9982
RA_OF_ASC_NODE = 222.0899
ARG_OF_PERICENTER = 240.7110
MEAN_ANOMALY   = 119.3566

EPHEMERIS_TYPE = 0
CLASSIFICATION_TYPE = U
NORAD_CAT_ID   = 67632
ELEMENT_SET_NO = 999
REV_AT_EPOCH   = 400
BSTAR          = .23582303E-2
MEAN_MOTION_DOT = .406421E-2
MEAN_MOTION_DDOT = 0

CCSDS_OMM_VERS = 2.0
CREATION_DATE  = 
ORIGINATOR     = 

OBJECT_NAME    = STARLINK-36637
OBJECT_ID      = 2026-020S
CENTER_NAME    = EARTH
REF_FRAME      = TEME
TIME_SYSTEM    = UTC
MEAN_ELEMENT_THEORY = SGP/SGP4

EPOCH          = 2026-02-24T19:21:19.308672
MEAN_MOTION    = 15.76473988
ECCENTRICITY   = .00014598
INCLINATION    = 42.9974
RA_OF_ASC_NODE = 220.3957
ARG_OF_PERICENTER = 300.1078
MEAN_ANOMALY   = 59.9647

EPHEMERIS_TYPE = 0
CLASSIFICATION_TYPE = U
NORAD_CAT_ID   = 67633
ELEMENT_SET_NO = 999
REV_AT_EPOCH   = 405
BSTAR          = .24014731E-2
MEAN_MOTION_DOT = .41216E-2
MEAN_MOTION_DDOT = 0

CCSDS_OMM_VERS = 2.0
CREATION_DATE  = 
ORIGINATOR     = 

OBJECT_NAME    = STARLINK-36617
OBJECT_ID      = 2026-020T
CENTER_NAME    = EARTH
REF_FRAME      = TEME
TIME_SYSTEM    = UTC
MEAN_ELEMENT_THEORY = SGP/SGP4

EPOCH          = 2026-02-25T04:00:01.999584
MEAN_MOTION    = 15.76349283
ECCENTRICITY   = .0001989
INCLINATION    = 42.9991
RA_OF_ASC_NODE = 217.6154
ARG_OF_PERICENTER = 258.4473
MEAN_ANOMALY   = 224.7088

EPHEMERIS_TYPE = 0
CLASSIFICATION_TYPE = U
NORAD_CAT_ID   = 67634
ELEMENT_SET_NO = 999
REV_AT_EPOCH   = 537
BSTAR          = .43613E-3
MEAN_MOTION_DOT = .71078E-3
MEAN_MOTION_DDOT = 0

CCSDS_OMM_VERS = 2.0
CREATION_DATE  = 
ORIGINATOR     = 

OBJECT_NAME    = STARLINK-36627
OBJECT_ID      = 2026-020U
CENTER_NAME    = EARTH
REF_FRAME      = TEME
TIME_SYSTEM    = UTC
MEAN_ELEMENT_THEORY = SGP/SGP4

EPOCH          = 2026-02-24T19:11:51.215712
MEAN_MOTION    = 15.76386543
ECCENTRICITY   = .00012235
INCLINATION    = 42.9985
RA_OF_ASC_NODE = 220.3417
ARG_OF_PERICENTER = 266.9558
MEAN_ANOMALY   = 93.1172

EPHEMERIS_TYPE = 0
CLASSIFICATION_TYPE = U
NORAD_CAT_ID   = 67635
ELEMENT_SET_NO = 999
REV_AT_EPOCH   = 405
BSTAR          = .11251426E-3
MEAN_MOTION_DOT = .17889E-3
MEAN_MOTION_DDOT = 0

CCSDS_OMM_VERS = 2.0
CREATION_DATE  = 
ORIGINATOR     = 

OBJECT_NAME    = STARLINK-36624
OBJECT_ID      = 2026-020V
CENTER_NAME    = EARTH
REF_FRAME      = TEME
TIME_SYSTEM    = UTC
MEAN_ELEMENT_THEORY = SGP/SGP4

EPOCH          = 2026-02-24T14:09:46.141632
MEAN_MOTION    = 15.76402431
ECCENTRICITY   = .0001598
INCLINATION    = 42.9983
RA_OF_ASC_NODE = 221.3384
ARG_OF_PERICENTER = 252.4705
MEAN_ANOMALY   = 107.5990

EPHEMERIS_TYPE = 0
CLASSIFICATION_TYPE = U
NORAD_CAT_ID   = 67636
ELEMENT_SET_NO = 999
REV_AT_EPOCH   = 402
BSTAR          = .16706E-2
MEAN_MOTION_DOT = .281219E-2
MEAN_MOTION_DDOT = 0

